[{"OBJECT_NAME":"STARLINK-36988","OBJECT_ID":"2026-039N","EPOCH":"2026-03-10T18:00:01.999296","MEAN_MOTION":15.82028126,"ECCENTRICITY":0.00021,"INCLINATION":42.9996,"RA_OF_ASC_NODE":48.3186,"ARG_OF_PERICENTER":265.1951,"MEAN_ANOMALY":113.2436,"EPHEMERIS_TYPE":0,"CLASSIFICATION_TYPE":"U","NORAD_CAT_ID":67998,"ELEMENT_SET_NO":999,"REV_AT_EPOCH":304,"BSTAR":-0.00013653,"MEAN_MOTION_DOT":-0.00029203,"MEAN_MOTION_DDOT":0},{"OBJECT_NAME":"STARLINK-36926","OBJECT_ID":"2026-039P","EPOCH":"2026-03-10T18:00:01.999296","MEAN_MOTION":15.82039038,"ECCENTRICITY":0.0001629,"INCLINATION":42.9995,"RA_OF_ASC_NODE":48.2977,"ARG_OF_PERICENTER":264.4788,"MEAN_ANOMALY":122.4979,"EPHEMERIS_TYPE":0,"CLASSIFICATION_TYPE":"U","NORAD_CAT_ID":67999,"ELEMENT_SET_NO":999,"REV_AT_EPOCH":304,"BSTAR":-0.00014154,"MEAN_MOTION_DOT":-0.00030265,"MEAN_MOTION_DDOT":0},{"OBJECT_NAME":"STARLINK-36931","OBJECT_ID":"2026-039Q","EPOCH":"2026-03-10T18:00:01.999296","MEAN_MOTION":15.81929907,"ECCENTRICITY":0.0002432,"INCLINATION":42.9995,"RA_OF_ASC_NODE":48.2873,"ARG_OF_PERICENTER":274.5403,"MEAN_ANOMALY":116.7054,"EPHEMERIS_TYPE":0,"CLASSIFICATION_TYPE":"U","NORAD_CAT_ID":68000,"ELEMENT_SET_NO":999,"REV_AT_EPOCH":304,"BSTAR":0.00099251,"MEAN_MOTION_DOT":0.00212824,"MEAN_MOTION_DDOT":0},{"OBJECT_NAME":"STARLINK-36903","OBJECT_ID":"2026-039R","EPOCH":"2026-03-10T18:00:01.999296","MEAN_MOTION":15.82015312,"ECCENTRICITY":0.0002275,"INCLINATION":42.9997,"RA_OF_ASC_NODE":48.2756,"ARG_OF_PERICENTER":261.2045,"MEAN_ANOMALY":134.3353,"EPHEMERIS_TYPE":0,"CLASSIFICATION_TYPE":"U","NORAD_CAT_ID":68001,"ELEMENT_SET_NO":999,"REV_AT_EPOCH":304,"BSTAR":-5.5073e-5,"MEAN_MOTION_DOT":-0.00012115,"MEAN_MOTION_DDOT":0},{"OBJECT_NAME":"STARLINK-36898","OBJECT_ID":"2026-039S","EPOCH":"2026-03-10T18:00:01.999296","MEAN_MOTION":15.81980183,"ECCENTRICITY":0.0002338,"INCLINATION":42.9996,"RA_OF_ASC_NODE":48.254,"ARG_OF_PERICENTER":267.4611,"MEAN_ANOMALY":136.6324,"EPHEMERIS_TYPE":0,"CLASSIFICATION_TYPE":"U","NORAD_CAT_ID":68002,"ELEMENT_SET_NO":999,"REV_AT_EPOCH":304,"BSTAR":0.00025816,"MEAN_MOTION_DOT":0.00054079,"MEAN_MOTION_DDOT":0},{"OBJECT_NAME":"STARLINK-36862","OBJECT_ID":"2026-039T","EPOCH":"2026-03-10T18:00:01.999296","MEAN_MOTION":15.82092713,"ECCENTRICITY":0.0001958,"INCLINATION":42.9996,"RA_OF_ASC_NODE":48.2327,"ARG_OF_PERICENTER":273.7374,"MEAN_ANOMALY":138.8514,"EPHEMERIS_TYPE":0,"CLASSIFICATION_TYPE":"U","NORAD_CAT_ID":68003,"ELEMENT_SET_NO":999,"REV_AT_EPOCH":304,"BSTAR":-0.00080917,"MEAN_MOTION_DOT":-0.00168266,"MEAN_MOTION_DDOT":0},{"OBJECT_NAME":"STARLINK-36888","OBJECT_ID":"2026-039U","EPOCH":"2026-03-10T18:00:01.999296","MEAN_MOTION":15.81975079,"ECCENTRICITY":0.0001425,"INCLINATION":42.9997,"RA_OF_ASC_NODE":48.2651,"ARG_OF_PERICENTER":265.5881,"MEAN_ANOMALY":134.2362,"EPHEMERIS_TYPE":0,"CLASSIFICATION_TYPE":"U","NORAD_CAT_ID":68004,"ELEMENT_SET_NO":999,"REV_AT_EPOCH":304,"BSTAR":0.00028685,"MEAN_MOTION_DOT":0.00060172,"MEAN_MOTION_DDOT":0},{"OBJECT_NAME":"STARLINK-36910","OBJECT_ID":"2026-039V","EPOCH":"2026-03-10T18:00:01.999296","MEAN_MOTION":15.82030169,"ECCENTRICITY":0.0001872,"INCLINATION":42.9996,"RA_OF_ASC_NODE":48.2434,"ARG_OF_PERICENTER":257.4192,"MEAN_ANOMALY":150.9356,"EPHEMERIS_TYPE":0,"CLASSIFICATION_TYPE":"U","NORAD_CAT_ID":68005,"ELEMENT_SET_NO":999,"REV_AT_EPOCH":304,"BSTAR":-0.00022905,"MEAN_MOTION_DOT":-0.00048529,"MEAN_MOTION_DDOT":0},{"OBJECT_NAME":"STARLINK-36889","OBJECT_ID":"2026-039W","EPOCH":"2026-03-10T18:00:01.999296","MEAN_MOTION":15.82226847,"ECCENTRICITY":0.0001729,"INCLINATION":42.9995,"RA_OF_ASC_NODE":48.2212,"ARG_OF_PERICENTER":249.1183,"MEAN_ANOMALY":167.6742,"EPHEMERIS_TYPE":0,"CLASSIFICATION_TYPE":"U","NORAD_CAT_ID":68006,"ELEMENT_SET_NO":999,"REV_AT_EPOCH":304,"BSTAR":-0.0016137,"MEAN_MOTION_DOT":-0.00330954,"MEAN_MOTION_DDOT":0},{"OBJECT_NAME":"STARLINK-36592","OBJECT_ID":"2026-039X","EPOCH":"2026-03-10T18:00:01.999296","MEAN_MOTION":15.82420017,"ECCENTRICITY":0.0002144,"INCLINATION":42.9993,"RA_OF_ASC_NODE":48.2117,"ARG_OF_PERICENTER":263.7591,"MEAN_ANOMALY":157.1984,"EPHEMERIS_TYPE":0,"CLASSIFICATION_TYPE":"U","NORAD_CAT_ID":68007,"ELEMENT_SET_NO":999,"REV_AT_EPOCH":304,"BSTAR":-0.0029555,"MEAN_MOTION_DOT":-0.00593361,"MEAN_MOTION_DDOT":0},{"OBJECT_NAME":"STARLINK-36911","OBJECT_ID":"2026-039Y","EPOCH":"2026-03-10T18:00:01.999296","MEAN_MOTION":15.82601734,"ECCENTRICITY":0.0002001,"INCLINATION":42.9996,"RA_OF_ASC_NODE":48.2013,"ARG_OF_PERICENTER":255.2714,"MEAN_ANOMALY":169.8454,"EPHEMERIS_TYPE":0,"CLASSIFICATION_TYPE":"U","NORAD_CAT_ID":68008,"ELEMENT_SET_NO":999,"REV_AT_EPOCH":304,"BSTAR":-0.0041024,"MEAN_MOTION_DOT":-0.0081011,"MEAN_MOTION_DDOT":0},{"OBJECT_NAME":"STARLINK-36956","OBJECT_ID":"2026-039Z","EPOCH":"2026-03-10T18:00:01.999296","MEAN_MOTION":15.82819511,"ECCENTRICITY":0.0001984,"INCLINATION":42.9992,"RA_OF_ASC_NODE":48.1904,"ARG_OF_PERICENTER":264.5813,"MEAN_ANOMALY":164.6535,"EPHEMERIS_TYPE":0,"CLASSIFICATION_TYPE":"U","NORAD_CAT_ID":68009,"ELEMENT_SET_NO":999,"REV_AT_EPOCH":304,"BSTAR":-0.0053003,"MEAN_MOTION_DOT":-0.01030246,"MEAN_MOTION_DDOT":0},{"OBJECT_NAME":"STARLINK-36953","OBJECT_ID":"2026-039AA","EPOCH":"2026-03-10T18:00:01.999296","MEAN_MOTION":15.83189468,"ECCENTRICITY":0.0001813,"INCLINATION":42.999,"RA_OF_ASC_NODE":48.1688,"ARG_OF_PERICENTER":260.6313,"MEAN_ANOMALY":176.8602,"EPHEMERIS_TYPE":0,"CLASSIFICATION_TYPE":"U","NORAD_CAT_ID":68010,"ELEMENT_SET_NO":999,"REV_AT_EPOCH":304,"BSTAR":-0.0072051,"MEAN_MOTION_DOT":-0.01425398,"MEAN_MOTION_DDOT":0},{"OBJECT_NAME":"STARLINK-36991","OBJECT_ID":"2026-039AB","EPOCH":"2026-03-10T18:00:01.999296","MEAN_MOTION":15.8333925,"ECCENTRICITY":0.0001818,"INCLINATION":42.9989,"RA_OF_ASC_NODE":48.1588,"ARG_OF_PERICENTER":263.2683,"MEAN_ANOMALY":178.3388,"EPHEMERIS_TYPE":0,"CLASSIFICATION_TYPE":"U","NORAD_CAT_ID":68011,"ELEMENT_SET_NO":999,"REV_AT_EPOCH":304,"BSTAR":-0.0076171,"MEAN_MOTION_DOT":-0.01506854,"MEAN_MOTION_DDOT":0},{"OBJECT_NAME":"STARLINK-36936","OBJECT_ID":"2026-039AC","EPOCH":"2026-03-10T18:00:01.999296","MEAN_MOTION":15.83671965,"ECCENTRICITY":0.0001652,"INCLINATION":42.9988,"RA_OF_ASC_NODE":48.1378,"ARG_OF_PERICENTER":263.4102,"MEAN_ANOMALY":186.3541,"EPHEMERIS_TYPE":0,"CLASSIFICATION_TYPE":"U","NORAD_CAT_ID":68012,"ELEMENT_SET_NO":999,"REV_AT_EPOCH":304,"BSTAR":-0.0085323,"MEAN_MOTION_DOT":-0.01686969,"MEAN_MOTION_DDOT":0},{"OBJECT_NAME":"STARLINK-36967","OBJECT_ID":"2026-039AD","EPOCH":"2026-03-10T18:00:01.999296","MEAN_MOTION":15.83011985,"ECCENTRICITY":0.0002141,"INCLINATION":42.999,"RA_OF_ASC_NODE":48.1789,"ARG_OF_PERICENTER":258.2681,"MEAN_ANOMALY":175.0895,"EPHEMERIS_TYPE":0,"CLASSIFICATION_TYPE":"U","NORAD_CAT_ID":68013,"ELEMENT_SET_NO":999,"REV_AT_EPOCH":304,"BSTAR":-0.0062705,"MEAN_MOTION_DOT":-0.01228131,"MEAN_MOTION_DDOT":0}]
