STARLINK-36988          
1 67998U 26039N   26069.75002314 -.00029203  00000+0 -13653-3 0  9992
2 67998  42.9996  48.3186 0002100 265.1951 113.2436 15.82028126  3044
STARLINK-36926          
1 67999U 26039P   26069.75002314 -.00030265  00000+0 -14154-3 0  9990
2 67999  42.9995  48.2977 0001629 264.4788 122.4979 15.82039038  3044
STARLINK-36931          
1 68000U 26039Q   26069.75002314  .00212824  00000+0  99251-3 0  9996
2 68000  42.9995  48.2873 0002432 274.5403 116.7054 15.81929907  3044
STARLINK-36903          
1 68001U 26039R   26069.75002314 -.00012115  00000+0 -55073-4 0  9995
2 68001  42.9997  48.2756 0002275 261.2045 134.3353 15.82015312  3042
STARLINK-36898          
1 68002U 26039S   26069.75002314  .00054079  00000+0  25816-3 0  9990
2 68002  42.9996  48.2540 0002338 267.4611 136.6324 15.81980183  3049
STARLINK-36862          
1 68003U 26039T   26069.75002314 -.00168266  00000+0 -80917-3 0  9990
2 68003  42.9996  48.2327 0001958 273.7374 138.8514 15.82092713  3045
STARLINK-36888          
1 68004U 26039U   26069.75002314  .00060172  00000+0  28685-3 0  9990
2 68004  42.9997  48.2651 0001425 265.5881 134.2362 15.81975079  3043
STARLINK-36910          
1 68005U 26039V   26069.75002314 -.00048529  00000+0 -22905-3 0  9994
2 68005  42.9996  48.2434 0001872 257.4192 150.9356 15.82030169  3044
STARLINK-36889          
1 68006U 26039W   26069.75002314 -.00330954  00000+0 -16137-2 0  9990
2 68006  42.9995  48.2212 0001729 249.1183 167.6742 15.82226847  3041
STARLINK-36592          
1 68007U 26039X   26069.75002314 -.00593361  00000+0 -29555-2 0  9992
2 68007  42.9993  48.2117 0002144 263.7591 157.1984 15.82420017  3048
STARLINK-36911          
1 68008U 26039Y   26069.75002314 -.00810110  00000+0 -41024-2 0  9992
2 68008  42.9996  48.2013 0002001 255.2714 169.8454 15.82601734  3041
STARLINK-36956          
1 68009U 26039Z   26069.75002314 -.01030246  00000+0 -53003-2 0  9998
2 68009  42.9992  48.1904 0001984 264.5813 164.6535 15.82819511  3045
STARLINK-36953          
1 68010U 26039AA  26069.75002314 -.01425398  00000+0 -72051-2 0  9990
2 68010  42.9990  48.1688 0001813 260.6313 176.8602 15.83189468  3049
STARLINK-36991          
1 68011U 26039AB  26069.75002314 -.01506854  00000+0 -76171-2 0  9995
2 68011  42.9989  48.1588 0001818 263.2683 178.3388 15.83339250  3045
STARLINK-36936          
1 68012U 26039AC  26069.75002314 -.01686969  00000+0 -85323-2 0  9991
2 68012  42.9988  48.1378 0001652 263.4102 186.3541 15.83671965  3048
STARLINK-36967          
1 68013U 26039AD  26069.75002314 -.01228131  00000+0 -62705-2 0  9994
2 68013  42.9990  48.1789 0002141 258.2681 175.0895 15.83011985  3043
